DELTA 2 R/B(1)          
1 20453U 90008B   25356.24593445  .00048160  00000+0  75067-3 0  9994
2 20453  35.6081 319.1127 0110813 264.7533  94.0546 15.45954332914101
COSMOS 2058             
1 20465U 90010A   25357.09203952  .00005420  00000+0  32654-3 0  9992
2 20465  82.4706 122.8484 0009261 232.5429 127.4959 15.10568319930671
SL-14 R/B               
1 20466U 90010B   25357.20035184  .00000443  00000+0  50872-4 0  9999
2 20466  82.5022 339.2220 0019527 187.3647 172.7284 14.83480577917140
SL-14 R/B               
1 20511U 90018B   25357.21209925  .00000497  00000+0  59498-4 0  9997
2 20511  82.5220 294.5768 0016087 349.3700  10.7172 14.82057026911250
HST                     
1 20580U 90037B   25356.65366697  .00006724  00000+0  22996-3 0  9992
2 20580  28.4656 205.0037 0002277 359.2579   0.8013 15.28171998761516
SL-16 R/B               
1 20625U 90046B   25357.27908357 -.00000196  00000+0 -76444-4 0  9993
2 20625  70.9992  98.3888 0012138  54.9630 305.2630 14.14997996837588
COSMOS 2084             
1 20663U 90055A   25357.06571769  .00002894  00000+0  21479-3 0  9997
2 20663  62.7891 236.8079 0030063 176.0877 184.0464 15.05076920924787
SL-6 R/B(2)             
1 20666U 90055D   25356.81294978  .00001882  00000+0  15311-3 0  9990
2 20666  62.7811 155.1870 0013833 315.6810  44.3181 15.03117285926636
SL-8 R/B                
1 20775U 90078B   25357.16720362  .00017042  00000+0  52646-3 0  9993
2 20775  82.9061 319.9730 0370405 270.7989  85.0813 14.86307679797922
SL-8 R/B                
1 21088U 91006B   25357.08620191  .00000126  00000+0  11173-3 0  9998
2 21088  82.9417 227.0170 0021219 249.0506 275.9830 13.77492084753523
OKEAN-3                 
1 21397U 91039A   25357.19304019  .00002697  00000+0  19199-3 0  9998
2 21397  82.5168  50.9297 0013601 225.9950 134.0156 15.04182442853534
COSMOS 2151             
1 21422U 91042A   25357.09848120  .00001714  00000+0  13656-3 0  9997
2 21422  82.4964 157.5203 0011745 323.4223  36.6197 14.99724071851714
